{
    "links": {
        "self": "http://www.neowsapp.com/rest/v1/neo/3759689?api_key=iIulBulltgU6a56xZRHN4H3l9WmuAYTsLGpBGhQ2"
    },
    "id": "3759689",
    "neo_reference_id": "3759689",
    "name": "(2016 RM41)",
    "designation": "2016 RM41",
    "nasa_jpl_url": "http://ssd.jpl.nasa.gov/sbdb.cgi?sstr=3759689",
    "absolute_magnitude_h": 25.3,
    "estimated_diameter": {
        "kilometers": {
            "estimated_diameter_min": 0.0231502122,
            "estimated_diameter_max": 0.0517654482
        },
        "meters": {
            "estimated_diameter_min": 23.150212221,
            "estimated_diameter_max": 51.7654482198
        },
        "miles": {
            "estimated_diameter_min": 0.0143848705,
            "estimated_diameter_max": 0.0321655483
        },
        "feet": {
            "estimated_diameter_min": 75.9521422633,
            "estimated_diameter_max": 169.8341531374
        }
    },
    "is_potentially_hazardous_asteroid": false,
    "close_approach_data": [
        {
            "close_approach_date": "2016-09-04",
            "close_approach_date_full": "2016-Sep-04 09:01",
            "epoch_date_close_approach": 1472979660000,
            "relative_velocity": {
                "kilometers_per_second": "7.9010286539",
                "kilometers_per_hour": "28443.7031541333",
                "miles_per_hour": "17673.8109959669"
            },
            "miss_distance": {
                "astronomical": "0.0510899034",
                "lunar": "19.8739724226",
                "kilometers": "7642940.727145758",
                "miles": "4749103.1490091404"
            },
            "orbiting_body": "Earth"
        }
    ],
    "orbital_data": {
        "orbit_id": "2",
        "orbit_determination_date": "2017-04-06 08:23:49",
        "first_observation_date": "2016-09-10",
        "last_observation_date": "2016-09-11",
        "data_arc_in_days": 1,
        "observations_used": 7,
        "orbit_uncertainty": "9",
        "minimum_orbit_intersection": ".0465704",
        "jupiter_tisserand_invariant": "2.895",
        "epoch_osculation": "2457642.5",
        "eccentricity": ".6475174044271589",
        "semi_major_axis": "2.992051723261921",
        "inclination": ".7372632725286768",
        "ascending_node_longitude": "246.4636871790596",
        "orbital_period": "1890.392876781771",
        "perihelion_distance": "1.054646157503554",
        "perihelion_argument": "90.12465353597312",
        "aphelion_distance": "4.929457289020288",
        "perihelion_time": "2457631.820503340844",
        "mean_anomaly": "2.03376707800618",
        "mean_motion": ".1904366041692183",
        "equinox": "J2000",
        "orbit_class": {
            "orbit_class_type": "AMO",
            "orbit_class_description": "Near-Earth asteroid orbits similar to that of 1221 Amor",
            "orbit_class_range": "1.017 AU < q (perihelion) < 1.3 AU"
        }
    },
    "is_sentry_object": false
}